QZS-1R                  
1 49336U 21096A   24282.35475963 -.00000195  00000+0  00000+0 0  9997
2 49336  36.1779  88.8147 0745604 270.0676 281.7949  1.00283734 10818
